STARLINK-31660          
1 59642U 24082M   26068.45093396 -.00000269  00000+0 -21930-6 0  9992
2 59642  43.0042 100.7890 0002132 327.0181  33.0537 15.27573152105438
FLOCK 4G-6              
1 62660U 25009BD  26068.71061311  .00012261  00000+0  45910-3 0  9991
2 62660  97.3980 150.7943 0002380 348.2637  11.8546 15.27432125121307
